SALSAT                  
1 46495U 20068K   24168.41435650  .00007719  00000+0  43819-3 0  9994
2 46495  97.8156 127.6859 0012437 323.1254  36.9120 15.13168580204196
UVSQ-SAT                
1 47438U 21006AB  24168.45604794  .00057567  00000+0  10919-2 0  9996
2 47438  97.3264 228.9300 0007403 201.4377 158.6565 15.48103166188627
LEDSAT                  
1 49069U 21073D   24168.46437181  .00017957  00000+0  72208-3 0  9996
2 49069  97.4377 239.5999 0017716 285.4028  74.5253 15.24825902156347
XW-3 (CAS-9)            
1 50466U 21131B   24168.56981443  .00000879  00000+0  29513-3 0  9996
2 50466  98.5282 253.6415 0005297 122.4424 237.7277 14.39664090129914
TEVEL-3                 
1 50988U 22002E   24168.55360215  .00182445  00000+0  15943-2 0  9991
2 50988  97.3753 244.3968 0003109 240.7519 119.3431 15.68364720134959
TEVEL-8                 
1 50989U 22002F   24168.46803263  .00168624  00000+0  14919-2 0  9992
2 50989  97.3781 244.3988 0002971 240.6787 119.4178 15.68101944134939
TEVEL-5                 
1 50998U 22002Q   24168.47443263  .00263093  00000+0  16269-2 0  9999
2 50998  97.3733 245.7993 0005553 246.8185 113.2496 15.76337484135043
TEVEL-6                 
1 50999U 22002R   24168.48553605  .00276872  00000+0  17392-2 0  9990
2 50999  97.3723 245.7622 0005332 246.9474 113.1230 15.75940915135042
TEVEL-1                 
1 51013U 22002AF  24168.45793544  .00168950  00000+0  14987-2 0  9997
2 51013  97.3752 244.1454 0003365 244.3135 115.7779 15.68035292134936
TEVEL-7                 
1 51062U 22002CG  24168.45328648  .00170968  00000+0  14970-2 0  9994
2 51062  97.3769 244.3611 0003453 243.8837 116.2070 15.68349394134937
TEVEL-4                 
1 51063U 22002CH  24168.56408156  .00177071  00000+0  15921-2 0  9999
2 51063  97.3768 244.3578 0003242 245.5252 114.5671 15.67676794134940
TEVEL-2                 
1 51069U 22002CP  24168.48697408  .00191148  00000+0  16670-2 0  9999
2 51069  97.3749 244.2948 0003212 241.2483 118.8456 15.68387409134942
GREENCUBE               
1 53106U 22080B   24166.32229891 -.00000003  00000+0  00000+0 0  9994
2 53106  70.1325 193.5164 0007597 107.9394 252.2094  6.42557698 45088
KAI-1 (RS26S)           
1 53378U 22096J   24168.49648737  .00129294  00000+0  10170-2 0  9991
2 53378  97.3949  87.3839 0004833 116.8886 243.2871 15.71076537104120
SIREN (RS30S)           
1 53384U 22096Q   24168.54049266  .00434161  74121-4  13469-2 0  9992
2 53384  97.3816  89.9625 0009188 138.0144 222.1836 15.91559854104309
CAS-5A (FO-118)         
1 54684U 22167C   24168.61177922  .00028709  00000+0  98128-3 0  9997
2 54684  97.6048 313.4254 0010944 148.5880 211.6016 15.30186209 84214
STRATOSAT-TK 1 (RS52S)  
1 57167U 23091B   24168.55866057  .00016756  00000+0  96415-3 0  9996
2 57167  97.6118 221.6300 0016797 121.6426 238.6446 15.12402504 53461
UMKA 1 (RS40S)          
1 57172U 23091G   24168.60182414  .00006176  00000+0  40857-3 0  9990
2 57172  97.6122 220.6531 0018493 121.8211 238.4821 15.07579264 53407
CUBESX-HSE 3 (RS42S)    
1 57178U 23091N   24168.55815320  .00009778  00000+0  62068-3 0  9998
2 57178  97.6157 221.0330 0018733 117.4104 242.9032 15.08939265 53419
MONITOR-4 (RS57S)       
1 57182U 23091S   24168.54550152  .00008298  00000+0  53414-3 0  9992
2 57182  97.6148 220.8425 0019248 118.1606 242.1570 15.08469569 53406
MONITOR-2 (RS39S)       
1 57184U 23091U   24168.56567231  .00006363  00000+0  42015-3 0  9998
2 57184  97.6146 220.9928 0015568 112.3168 247.9712 15.07679627 53414
SVYATOBOR 1 (RS60S)     
1 57187U 23091X   24168.58883765  .00006784  00000+0  42943-3 0  9993
2 57187  97.6149 221.4291 0015259 109.8619 250.4255 15.09211078 53446
VIZARD-METEO (RS38S)    
1 57189U 23091Z   24168.54501587  .00009759  00000+0  59304-3 0  9994
2 57189  97.6147 221.7598 0014198 107.8968 252.3811 15.10597992 53460
NANOZOND 1 (RS49S)      
1 57190U 23091AA  24168.54789465  .00013777  00000+0  77939-3 0  9998
2 57190  97.6121 222.2512 0012536 112.7226 247.5331 15.13113112 53501
POLYTECH-UNIVERSE 3 (R*)
1 57191U 23091AB  24168.57020030  .00006343  00000+0  41870-3 0  9994
2 57191  97.6110 220.6829 0020839 128.4943 231.8158 15.07612166 53406
UTMN 2 (RS27S)          
1 57203U 23091AP  24168.53569054  .00008711  00000+0  53688-3 0  9999
2 57203  97.6145 221.6159 0014620 108.1813 252.1009 15.10111815 53452
ARCCUBE 1 (RS25S)       
1 57205U 23091AR  24168.52599864  .00015723  00000+0  86190-3 0  9997
2 57205  97.6088 222.3358 0012597 114.2715 245.9834 15.14207750 53510
KUZGTU 1 (RS47S)        
1 57217U 23091AV  24168.56669272  .00009617  00000+0  61296-3 0  9990
2 57217  97.6127 220.9079 0018601 118.6828 241.6273 15.08795583 53414
HADES-D (SO-121)        
1 58567U 23174CY  24168.46841508  .00052721  00000+0  18168-2 0  9997
2 58567  97.4542 244.1936 0013005 222.4276 137.5960 15.29753553 33672
